XRISM                   
1 57800U 23137A   24166.30258444  .00005273  00000+0  39466-3 0  9992
2 57800  31.0045  30.9762 0009361 181.5309 178.5299 15.01197641 42178
